H1 CPF 01  gfz 2021 03 04 01  5631 tandemx   
H2 1003001  6202 36605    2021 03 04 00 59 42 2021 03 09 00 00 42   120 1 1  0 0 0
H9
10 0 59281  71982.000000  0   -4652289.609   1937592.472   4686210.330
10 0 59281  72102.000000  0   -5093455.363   2349103.151   3989416.193
10 0 59281  72222.000000  0   -5438669.366   2726427.352   3222377.578
10 0 59281  72342.000000  0   -5682547.928   3061232.186   2398587.505
10 0 59281  72462.000000  0   -5821630.480   3345855.186   1532550.507
10 0 59281  72582.000000  0   -5854432.882   3573477.486    639522.062
10 0 59281  72702.000000  0   -5781459.114   3738280.921   -264768.039
10 0 59281  72822.000000  0   -5605173.514   3835585.726  -1164400.972
10 0 59281  72942.000000  0   -5329933.985   3861966.438  -2043558.216
10 0 59281  73062.000000  0   -4961885.706   3815341.234  -2886809.102
10 0 59281  73182.000000  0   -4508819.576   3695033.075  -3679387.086
10 0 59281  73302.000000  0   -3979999.894   3501801.370  -4407449.891
10 0 59281  73422.000000  0   -3385967.505   3237845.024  -5058318.401
10 0 59281  73542.000000  0   -2738322.783   2906776.613  -5620690.250
10 0 59281  73662.000000  0   -2049495.690   2513570.224  -6084826.977
10 0 59281  73782.000000  0   -1332504.113   2064482.732  -6442712.665
10 0 59281  73902.000000  0    -600707.974   1566950.857  -6688179.796
10 0 59281  74022.000000  0     132436.173   1029467.251  -6817004.900
10 0 59281  74142.000000  0     853616.375    461437.018  -6826973.050
10 0 59281  74262.000000  0    1549901.667   -126983.383  -6717913.562
10 0 59281  74382.000000  0    2208968.968   -725063.923  -6491701.320
10 0 59281  74502.000000  0    2819315.937  -1321691.288  -6152228.204
10 0 59281  74622.000000  0    3370459.328  -1905570.051  -5705343.111
10 0 59281  74742.000000  0    3853115.174  -2465431.786  -5158762.575
10 0 59281  74862.000000  0    4259359.671  -2990251.587  -4521948.858
10 0 59281  74982.000000  0    4582763.742  -3469465.266  -3805955.988
10 0 59281  75102.000000  0    4818501.262  -3893182.754  -3023247.914
10 0 59281  75222.000000  0    4963429.044  -4252394.963  -2187488.609
10 0 59281  75342.000000  0    5016134.458  -4539167.980  -1313306.418
10 0 59281  75462.000000  0    4976949.518  -4746820.612   -416037.262
10 0 59281  75582.000000  0    4847928.933  -4870079.885    488549.296
10 0 59281  75702.000000  0    4632793.146  -4905209.318   1384534.658
10 0 59281  75822.000000  0    4336837.328  -4850106.336   2256140.672
10 0 59281  75942.000000  0    3966808.215  -4704366.843   3088015.702
10 0 59281  76062.000000  0    3530753.278  -4469315.556   3865512.645
10 0 59281  76182.000000  0    3037844.405  -4148000.686   4574952.430
10 0 59281  76302.000000  0    2498182.086  -3745153.177   5203867.175
10 0 59281  76422.000000  0    1922585.143  -3267112.985   5741218.742
10 0 59281  76542.000000  0    1322370.033  -2721723.373   6177590.005
10 0 59281  76662.000000  0     709125.497  -2118196.357   6505343.992
10 0 59281  76782.000000  0      94487.136  -1466953.154   6718751.198
10 0 59281  76902.000000  0    -510083.239   -779441.815   6814084.019
10 0 59281  77022.000000  0   -1093510.286    -67934.258   6789677.897
10 0 59281  77142.000000  0   -1645307.287    654692.700   6645958.367
10 0 59281  77262.000000  0   -2155764.097   1375189.841   6385433.974
10 0 59281  77382.000000  0   -2616118.374   2080177.551   6012655.187
10 0 59281  77502.000000  0   -3018707.158   2756394.081   5534140.055
10 0 59281  77622.000000  0   -3357097.209   3390946.687   4958266.725
10 0 59281  77742.000000  0   -3626191.837   3971560.404   4295132.694
10 0 59281  77862.000000  0   -3822311.172   4486820.613   3556382.553
10 0 59281  77982.000000  0   -3943244.090   4926403.748   2755005.794
10 0 59281  78102.000000  0   -3988270.426   5281290.332   1905107.062
10 0 59281  78222.000000  0   -3958151.849   5543954.279   1021654.284
10 0 59281  78342.000000  0   -3855093.383   5708525.095    120210.035
10 0 59281  78462.000000  0   -3682675.912   5770919.447   -783350.946
10 0 59281  78582.000000  0   -3445758.926   5728935.610  -1673132.014
10 0 59281  78702.000000  0   -3150357.181   5582308.563  -2533504.114
10 0 59281  78822.000000  0   -2803493.681   5332725.818  -3349386.166
10 0 59281  78942.000000  0   -2413036.696   4983804.167  -4106512.357
10 0 59281  79062.000000  0   -1987522.895   4541028.085  -4791680.824
10 0 59281  79182.000000  0   -1535971.688   4011653.260  -5392977.624
10 0 59281  79302.000000  0   -1067696.094   3404579.536  -5899975.980
10 0 59281  79422.000000  0    -592112.458   2730193.463  -6303908.294
10 0 59281  79542.000000  0    -118553.401   2000184.458  -6597806.146
10 0 59281  79662.000000  0     343911.060   1227340.665  -6776608.863
10 0 59281  79782.000000  0     786642.399    425326.556  -6837242.198
10 0 59281  79902.000000  0    1201591.314   -391554.524  -6778665.605
10 0 59281  80022.000000  0    1581440.111  -1208610.385  -6601886.887
10 0 59281  80142.000000  0    1919728.227  -2011016.898  -6309946.016
10 0 59281  80262.000000  0    2210960.803  -2784079.907  -5907869.181
10 0 59281  80382.000000  0    2450697.946  -3513500.113  -5402593.051
10 0 59281  80502.000000  0    2635624.183  -4185638.605  -4802856.102
10 0 59281  80622.000000  0    2763594.856  -4787773.165  -4119056.637
10 0 59281  80742.000000  0    2833659.426  -5308342.697  -3363083.636
10 0 59281  80862.000000  0    2846061.203  -5737177.980  -2548119.197
10 0 59281  80982.000000  0    2802212.993  -6065709.922  -1688413.198
10 0 59281  81102.000000  0    2704649.259  -6287151.163   -799035.196
10 0 59281  81222.000000  0    2556953.327  -6396645.088    104393.986
10 0 59281  81342.000000  0    2363662.130  -6391376.329   1005983.013
10 0 59281  81462.000000  0    2130151.803  -6270642.387   1889857.378
10 0 59281  81582.000000  0    1862505.335  -6035881.757   2740449.473
10 0 59281  81702.000000  0    1567366.418  -5690657.470   3542780.785
10 0 59281  81822.000000  0    1251783.496  -5240598.584   4282731.369
10 0 59281  81942.000000  0     923048.164  -4693301.532   4947291.242
10 0 59281  82062.000000  0     588531.713  -4058194.307   5524790.832
10 0 59281  82182.000000  0     255523.071  -3346363.663   6005104.681
10 0 59281  82302.000000  0     -68926.495  -2570351.762   6379823.412
10 0 59281  82422.000000  0    -378149.765  -1743929.302   6642393.780
10 0 59281  82542.000000  0    -665997.837   -881848.477   6788227.450
10 0 59281  82662.000000  0    -926960.644       422.029   6814777.482
10 0 59281  82782.000000  0   -1156271.556    886975.430   6721580.240
10 0 59281  82902.000000  0   -1349994.013   1761753.305   6510262.581
10 0 59281  83022.000000  0   -1505089.040   2608835.775   6184515.250
10 0 59281  83142.000000  0   -1619463.222   3412731.596   5750032.359
10 0 59281  83262.000000  0   -1691995.789   4158663.274   5214417.019
10 0 59281  83382.000000  0   -1722544.463   4832843.222   4587055.252
10 0 59281  83502.000000  0   -1711930.485   5422736.031   3878956.542
10 0 59281  83622.000000  0   -1661901.867   5917300.108   3102563.843
10 0 59281  83742.000000  0   -1575077.527   6307203.424   2271535.713
10 0 59281  83862.000000  0   -1454871.542   6585009.205   1400503.661
10 0 59281  83982.000000  0   -1305398.467   6745325.376    504809.095
10 0 59281  84102.000000  0   -1131363.607   6784913.892   -399773.536
10 0 59281  84222.000000  0    -937940.743   6702759.038  -1297323.591
10 0 59281  84342.000000  0    -730639.322   6500088.043  -2172065.920
10 0 59281  84462.000000  0    -515166.614   6180344.034  -3008655.458
10 0 59281  84582.000000  0    -297288.214   5749116.765  -3792449.290
10 0 59281  84702.000000  0     -82689.384   5214033.634  -4509763.335
10 0 59281  84822.000000  0     123159.069   4584612.451  -5148108.594
10 0 59281  84942.000000  0     315127.604   3872080.846  -5696402.413
10 0 59281  85062.000000  0     488544.364   3089166.038  -6145152.301
10 0 59281  85182.000000  0     639298.299   2249860.207  -6486609.067
10 0 59281  85302.000000  0     763927.855   1369167.968  -6714888.752
10 0 59281  85422.000000  0     859693.770    462839.625  -6826064.063
10 0 59281  85542.000000  0     924634.667   -452906.320  -6818224.782
10 0 59281  85662.000000  0     957604.809  -1361667.714  -6691506.205
10 0 59281  85782.000000  0     958293.575  -2247144.312  -6448085.424
10 0 59281  85902.000000  0     927227.182  -3093421.747  -6092149.287
10 0 59281  86022.000000  0     865751.698  -3885254.311  -5629832.226
10 0 59281  86142.000000  0     775997.206  -4608339.131  -5069119.672
10 0 59281  86262.000000  0     660825.164  -5249576.297  -4419721.525
10 0 59281  86382.000000  0     523758.094  -5797313.010  -3692915.531
99
